user_ids/name,is_company,name,street,street2,state_id,city,country_id,ref,phone
Sergio Ventas,False,Cliende Plantilla Modilab,Direccion,Calle,Escuintla (GT),Ciudad,Guatemala,,3434343
Sergio Ventas,False,Cliente Base Modilab #0,Calle 1,Zona,Guatemala (GT),Ciudad,Guatemala,,455555555
Sergio Torres,TRUE,Ana Rebeca Guerra,"3 Calle 3-05, San Jose",Zona 2,Villa Nueva,Guatemala,Guatemala,C0001,43904674
Sergio Torres,TRUE,Angela de Molina,1 Calle B 7-57,"Colonia Lourdes, Zona 17",Guatemala,Guatemala,Guatemala,C0002,55135129
Sergio Torres,TRUE,Angelica Trinidad Contreras Castellanos,Calle del Manchen Casa No. 10,Laboratorio Yaveah,"Antigua Guatemala, Sacatepequez",Sacatepequez,Antigua Guatemala,C0003,78328210
Sergio Torres,TRUE,Asoc. Cong. Hnas. Misioneras del Sgdo. Corazon de Jesus,2 Calle A 11-74,Zona 3,Barcenas,Guatemala,Guatemala,C0004,66294879
Sergio Torres,TRUE,Asociacion Española de Beneficencia,Ciudad,,,,,C0005,
Sergio Torres,TRUE,Asociacion guatemalteca de enfermedades Reumaticas,Ciudad,,,,,C0006,
Sergio Torres,TRUE,Asociación Guatemalteca Pro-Salud -ONG-/Labclinic,Ciudad,,,,,C0007,
Sergio Torres,TRUE,Asociacion Ministerio de Esperanza,Ciudad,,,,,C0008,
Sergio Torres,TRUE,"Asociacion Pro Salud, Educacion y Desarrollo ""K'aslimaal""",Ciudad,,,,,C0009,
Sergio Torres,TRUE,Brenda Solorzano,Ciudad,,,,,C0010,
Sergio Torres,TRUE,"Caballo de Rio, S.A.",Ciudad,,,,,C0011,
Sergio Torres,TRUE,Carelab S.A.,Ciudad,,,,,C0012,
Sergio Torres,TRUE,Carlos Lopez Maldonado,Ciudad,,,,,C0013,
Sergio Torres,TRUE,Carmen Ramirez Soto,Ciudad,,,,,C0014,
Sergio Torres,TRUE,Carola Menendez,Ciudad,,,,,C0015,
Sergio Torres,TRUE,Centro de Atencion Sanitaria San Rafael,Ciudad,,,,,C0016,
Sergio Torres,TRUE,Centro de Diagnostico Clinico,Ciudad,,,,,C0017,
Sergio Torres,TRUE,Centro de Investigación y Diagnostico 2,Ciudad,,,,,C0018,
Sergio Torres,TRUE,"Centro de Investigación y Diagnostico, S.A.",Ciudad,,,,,C0019,
Sergio Torres,TRUE,Centro de Salud Integral Manos Abiertas,Ciudad,,,,,C0020,
Sergio Torres,TRUE,Centro Diagnostico Santa Cruz,Ciudad,,,,,C0021,
Sergio Torres,TRUE,"Centro Medico Villa Nueva, S.A.",Ciudad,,,,,C0022,
Sergio Torres,TRUE,Christian Manolo Perez Morataya,Ciudad,,,,,C0023,
Sergio Torres,TRUE,Clinica Medica El Buen Pastor,Ciudad,,,,,C0024,
Sergio Torres,TRUE,Clinica Parroquial,Ciudad,,,,,C0025,
Sergio Torres,TRUE,Clinicas parroquiales,Ciudad,,,,,C0026,
Sergio Torres,TRUE,Clinilab,Ciudad,,,,,C0027,
Sergio Torres,TRUE,Clinitest,Ciudad,,,,,C0028,
Sergio Torres,TRUE,Colectivo Amigos Contra el Sida,Ciudad,,,,,C0029,
Sergio Torres,TRUE,Colegio Einstein,Ciudad,,,,,C0030,
Sergio Torres,TRUE,CONSULTORIO CASA CENTRAL,Ciudad,,,,,C0031,
Sergio Torres,TRUE,Corpolab,Ciudad,,,,,C0032,
Sergio Torres,TRUE,Darwin Alvarez,Ciudad,,,,,C0033,
Sergio Torres,TRUE,Darwin Ronaldo Marroquin Cermeño,Ciudad,,,,,C0034,
Sergio Torres,TRUE,David Franco,Ciudad,,,,,C0035,
Sergio Torres,TRUE,David Ortiz Vásquez,Ciudad,,,,,C0036,
Sergio Torres,TRUE,Devi-lab,Ciudad,,,,,C0037,
Sergio Torres,TRUE,Diana Calderon,Ciudad,,,,,C0038,
Sergio Torres,TRUE,Edgar Antonio Contreras,Ciudad,,,,,C0039,
Sergio Torres,TRUE,Edgar García,Ciudad,,,,,C0040,
Sergio Torres,TRUE,Edwin Chacon/Guastalab II,Ciudad,,,,,C0041,
Sergio Torres,TRUE,Erick Dubon,Ciudad,,,,,C0042,
Sergio Torres,TRUE,Erick Vides,Ciudad,,,,,C0043,
Sergio Torres,TRUE,Eugenia Monge,Ciudad,,,,,C0044,
Sergio Torres,TRUE,Euro-Guat. S.A.,Ciudad,,,,,C0045,
Sergio Torres,TRUE,Everson Wilmar Giron Corzo,Ciudad,,,,,C0046,
Sergio Torres,TRUE,Fredy Alejandro Velasquez,Ciudad,,,,,C0047,
Sergio Torres,TRUE,Fundacion Buen Samaritano,Ciudad,,,,,C0048,
Sergio Torres,TRUE,Giovany Raymundo,Ciudad,,,,,C0049,
Sergio Torres,TRUE,"Givaudan Guatemala, S.A.",Ciudad,,,,,C0050,
Sergio Torres,TRUE,"Global Medic, S.A.",Ciudad,,,,,C0051,
Sergio Torres,TRUE,Global Quality S.A.,Ciudad,,,,,C0052,
Sergio Torres,TRUE,Gloria Isabel Rosales,Ciudad,,,,,C0053,
Sergio Torres,TRUE,Guisella Maria Siekavizza Rojas,Ciudad,,,,,C0054,
Sergio Torres,TRUE,Heidi Sanchez,Ciudad,,,,,C0055,
Sergio Torres,TRUE,Henry morales,Ciudad,,,,,C0056,
Sergio Torres,TRUE,HF Healthcare Services L3C,Ciudad,,,,,C0057,
Sergio Torres,TRUE,Hospital Privado Hermano Pedro S. A.,Ciudad,,,,,C0058,
Sergio Torres,TRUE,"Hospital Westmot Bethel, S.A.",Ciudad,,,,,C0059,
Sergio Torres,TRUE,Hugo Perez Ocaña,Ciudad,,,,,C0060,
Sergio Torres,TRUE,ICI/ uni-lab,Ciudad,,,,,C0061,
Sergio Torres,TRUE,IGSS/Consultorio Antigua Guatemala,Ciudad,,,,,C0062,
Sergio Torres,TRUE,"IMED, S.A.",Ciudad,,,,,C0063,
Sergio Torres,TRUE,Instituto de Nutrición de Centro America y Panamá,Ciudad,,,,,C0064,
Sergio Torres,TRUE,JARCA SOCIEDAD ANONIMA,Ciudad,,,,,C0065,
Sergio Torres,TRUE,Jorge Lopez,Ciudad,,,,,C0066,
Sergio Torres,TRUE,Jorge Roberto Davila Lopez,Ciudad,,,,,C0067,
Sergio Torres,TRUE,Jose Carrillo,Ciudad,,,,,C0068,
Sergio Torres,TRUE,Jose David Iglesias Menendez,Ciudad,,,,,C0069,
Sergio Torres,TRUE,JOSE GALLARDO,Ciudad,,,,,C0070,
Sergio Torres,TRUE,Juan Bocel Saminez,Ciudad,,,,,C0071,
Sergio Torres,TRUE,Juan Carlos Garcia,Ciudad,,,,,C0072,
Sergio Torres,TRUE,Karen Alicia Castillo Garcia,Ciudad,,,,,C0073,
Sergio Torres,TRUE,Kenny Rojas Natareno,Ciudad,,,,,C0074,
Sergio Torres,TRUE,"Laboratorio Clinico Biologico Ciff, S.A.",Ciudad,,,,,C0075,
Sergio Torres,TRUE,Laboratorio Clínico Biólogo Sololab,Ciudad,,,,,C0076,
Sergio Torres,TRUE,Laboratorio Clinico Global,Ciudad,,,,,C0077,
Sergio Torres,TRUE,Laboratorio Clinico Heco,Ciudad,,,,,C0078,
Sergio Torres,TRUE,Laboratorio Clinico Hernandez,Ciudad,,,,,C0079,
Sergio Torres,TRUE,Laboratorio Clinico Martinez,Ciudad,,,,,C0080,
Sergio Torres,TRUE,Laboratorio Clinico Mil sonrisas,Ciudad,,,,,C0081,
Sergio Torres,TRUE,Laboratorio Clinico San Jose 2,Ciudad,,,,,C0082,
Sergio Torres,TRUE,Laboratorio Clinico San Rafael / Sofia Villatoro,Ciudad,,,,,C0083,
Sergio Torres,TRUE,Laboratorio Clínico Santiago,Ciudad,,,,,C0084,
Sergio Torres,TRUE,Laboratorio Clinico Vida,Ciudad,,,,,C0085,
Sergio Torres,TRUE,Laboratorio de Inmunologia,Ciudad,,,,,C0086,
Sergio Torres,TRUE,Laboratorio la Fe,Ciudad,,,,,C0087,
Sergio Torres,TRUE,Laboratorio Linda Vista,Ciudad,,,,,C0088,
Sergio Torres,TRUE,Laboratorio Magdalena,Ciudad,,,,,C0089,
Sergio Torres,TRUE,Laboratorio Medico Obelisco,Ciudad,,,,,C0090,
Sergio Torres,TRUE,LCI Laboratorio Clinico Integral,Ciudad,,,,,C0091,
Sergio Torres,TRUE,Liga Guatemalteca Contra las Enfermedades del Corazón,Ciudad,,,,,C0092,
Sergio Torres,TRUE,Lisbeth Barrera,Ciudad,,,,,C0093,
Sergio Torres,TRUE,Lisbeth Maria Gonzalez,Ciudad,,,,,C0094,
Sergio Torres,TRUE,Lucrecia Pac,Ciudad,,,,,C0095,
Sergio Torres,TRUE,Luis Roberto Guerra,Ciudad,,,,,C0096,
Sergio Torres,TRUE,Luzan Garcia,Ciudad,,,,,C0097,
Sergio Torres,TRUE,Mabel Castañeda,Ciudad,,,,,C0098,
Sergio Torres,TRUE,Manuel de Paz,Ciudad,,,,,C0099,
Sergio Torres,TRUE,Maria Eugenia Siekavizza,Ciudad,,,,,C0100,
Sergio Torres,TRUE,Maria Teresa Jumique,Ciudad,,,,,C0101,
Sergio Torres,TRUE,Mario Rene Flores Ordoñez,Ciudad,,,,,C0102,
Sergio Torres,TRUE,MARTHA JULIA DIAZ,Ciudad,,,,,C0103,
Sergio Torres,TRUE,Martha Ramos,Ciudad,,,,,C0104,
Sergio Torres,TRUE,Masterlab,Ciudad,,,,,C0105,
Sergio Torres,TRUE,Medilab Centro de Diagnostico,Ciudad,,,,,C0106,
Sergio Torres,TRUE,Ministerio de Salud Publica y Asistencia Social,Ciudad,,,,,C0107,
Sergio Torres,TRUE,Nancy Elizabeth Lemus,Ciudad,,,,,C0108,
Sergio Torres,TRUE,Nestor Eduardo Medio,Ciudad,,,,,C0109,
Sergio Torres,TRUE,Nineth Ochoa,Ciudad,,,,,C0110,
Sergio Torres,TRUE,Norma de Paz,Ciudad,,,,,C0111,
Sergio Torres,TRUE,"Nutritec, S. A.",Ciudad,,,,,C0112,
Sergio Torres,TRUE,Obras Sociales del Santo Hermano Pedro,Ciudad,,,,,C0113,
Sergio Torres,TRUE,OFTA - LAB,Ciudad,,,,,C0114,
Sergio Torres,TRUE,Orlando Rivas,Ciudad,,,,,C0115,
Sergio Torres,TRUE,Oscar Payes,Ciudad,,,,,C0116,
Sergio Torres,TRUE,OTTO RAÚL TORRES,Ciudad,,,,,C0117,
Sergio Torres,TRUE,Patronato de Asistencia Social del hospital Roosevelt,Ciudad,,,,,C0118,
Sergio Torres,TRUE,Patronato Doctor Roberto Koch,Ciudad,,,,,C0119,
Sergio Torres,TRUE,Pedro Raul Medio,Ciudad,,,,,C0120,
Sergio Torres,TRUE,Prosaf,Ciudad,,,,,C0121,
Sergio Torres,TRUE,Quibiolab,Ciudad,,,,,C0122,
Sergio Torres,TRUE,Raul Najera,Ciudad,,,,,C0123,
Sergio Torres,TRUE,Rodolfo Choc,Ciudad,,,,,C0124,
Sergio Torres,TRUE,"Romalatte, S.A.",Ciudad,,,,,C0125,
Sergio Torres,TRUE,Saint Joseph's Hospice Association (Asociacion Hospicio de S,Ciudad,,,,,C0126,
Sergio Torres,TRUE,Sanatorio La Villa,Ciudad,,,,,C0127,
Sergio Torres,TRUE,Sanatorio Medica Centro,Ciudad,,,,,C0128,
Sergio Torres,TRUE,Sanatorio Santa Ana S.A.,Ciudad,,,,,C0129,
Sergio Torres,TRUE,Sanatorio Servicios Medicos S.A.,Ciudad,,,,,C0130,
Sergio Torres,TRUE,SANATORIO SERVIMEDI,Ciudad,,,,,C0131,
Sergio Torres,TRUE,Sandra Lopez,Ciudad,,,,,C0132,
Sergio Torres,TRUE,"Serv. Globales de Salud Villa San Fco, S.A.",Ciudad,,,,,C0133,
Sergio Torres,TRUE,"Servicios de Atencion en Salud, S. A.",Ciudad,,,,,C0134,
Sergio Torres,TRUE,Servicios médicos de asistencia S.A.,Ciudad,,,,,C0135,
Sergio Torres,TRUE,"Servicios Medicos y Diagnosticos la Asuncion, S.A.",Ciudad,,,,,C0136,
Sergio Torres,TRUE,"Servicios Médicos y Hospitalarios Centroamericanos, S.A.",Ciudad,,,,,C0137,
Sergio Torres,TRUE,Silvia Suarez / Guastalab,Ciudad,,,,,C0138,
Sergio Torres,TRUE,Sonia iraheta,Ciudad,,,,,C0139,
Sergio Torres,TRUE,Syndy Bedoya,Ciudad,,,,,C0140,
Sergio Torres,TRUE,Tania Pivaral,Ciudad,,,,,C0141,
Sergio Torres,TRUE,Test Laboratorio,Ciudad,,,,,C0142,
Sergio Torres,TRUE,Unidad de Cirugia Cardiovascular de Guatemala,Ciudad,,,,,C0143,
Sergio Torres,TRUE,Victoria Perez de Ruiz,Ciudad,,,,,C0144,
Sergio Torres,TRUE,Victoria Recinos,Ciudad,,,,,C0145,
Sergio Torres,TRUE,Victor Israel Guerra Zavala,Ciudad,,,,,C0146,
Sergio Torres,TRUE,"Violacteos, S.A.",Ciudad,,,,,C0147,
Sergio Torres,TRUE,Yilka Quiñonez,Ciudad,,,,,C0148,
Sergio Torres,TRUE,Juan Carlos Garcia,Ciudad,,,,,C0149,
Sergio Torres,TRUE,"Nutritec, S. A.",Ciudad,,,,,C0150,
Jorge de Leon,TRUE,Alfredo Álvarez del Cid,Ciudad,,,,,C0151,
Jorge de Leon,TRUE,Alfredo Arana Saucedo,Ciudad,,,,,C0152,
Jorge de Leon,TRUE,Aminta Miranda Leon,Ciudad,,,,,C0153,
Jorge de Leon,TRUE,Ana Aldana,Ciudad,,,,,C0154,
Jorge de Leon,TRUE,Andrea De Carrion,Ciudad,,,,,C0155,
Jorge de Leon,TRUE,Antonio Palencia,Ciudad,,,,,C0156,
Jorge de Leon,TRUE,Ariel Barrios,Ciudad,,,,,C0157,
Jorge de Leon,TRUE,Asociacion Benedictina Olivetana,Ciudad,,,,,C0158,
Jorge de Leon,TRUE,Asociacion Cultural Franciscano Capuchina de la Divina Pasto,Ciudad,,,,,C0159,
Jorge de Leon,TRUE,Asociacion Misioneros de Caridad en Salud Integral,Ciudad,,,,,C0160,
Jorge de Leon,TRUE,Asoc Pro B de la Fam de Guate,Ciudad,,,,,C0161,
Jorge de Leon,TRUE,ASOC PRO B DE LA FAM DE GUATE,Ciudad,,,,,C0162,
Jorge de Leon,TRUE,Avalos Carranza Copropiedad,Ciudad,,,,,C0163,
Jorge de Leon,TRUE,"Avance Global, S.A.",Ciudad,,,,,C0164,
Jorge de Leon,TRUE,Banco de sangre regalo de vida,Ciudad,,,,,C0165,
Jorge de Leon,TRUE,Beatriz Penados,Ciudad,,,,,C0166,
Jorge de Leon,TRUE,Bely Anet Ochoa Castillo,Ciudad,,,,,C0167,
Jorge de Leon,TRUE,Biosoluciones Clinica,Ciudad,,,,,C0168,
Jorge de Leon,TRUE,Caritas Arquidiocesana,Ciudad,,,,,C0169,
Jorge de Leon,TRUE,Celeste wendy Tatiana García Lemus,Ciudad,,,,,C0170,
Jorge de Leon,TRUE,Centro Clinico Rubalab,Ciudad,,,,,C0171,
Jorge de Leon,TRUE,Centro Comunitario de Salud S. A.,Ciudad,,,,,C0172,
Jorge de Leon,TRUE,"Centro de Diagnostico Completo, S.A.",Ciudad,,,,,C0173,
Jorge de Leon,TRUE,"Centro de Diagnosticos Medicos Guatemala, S.A.",Ciudad,,,,,C0174,
Jorge de Leon,TRUE,"Centro Diagnostico del Norte, S. A.",Ciudad,,,,,C0175,
Jorge de Leon,TRUE,Centro Diagnóstico Eben-Ezer S.A.,Ciudad,,,,,C0176,
Jorge de Leon,TRUE,Centro Materno Infantil Santa Teresita,Ciudad,,,,,C0177,
Jorge de Leon,TRUE,"Cericap, S. A.",Ciudad,,,,,C0178,
Jorge de Leon,TRUE,Clinica El Trebol,Ciudad,,,,,C0179,
Jorge de Leon,TRUE,Clinica Medica de Especialidades,Ciudad,,,,,C0180,
Jorge de Leon,TRUE,Clinica Medica Integral Alpha Medic,Ciudad,,,,,C0181,
Jorge de Leon,TRUE,Clinica Popular Parroquial Cristo Nuestra Paz,Ciudad,,,,,C0182,
Jorge de Leon,TRUE,Clinica San Antonio,Ciudad,,,,,C0183,
Jorge de Leon,TRUE,Compañia de las Hijas de la Caridad de la Republica de Guate,Ciudad,,,,,C0184,
Jorge de Leon,TRUE,Compañia Procesadora de Niquel de Izabal S.A,Ciudad,,,,,C0185,
Jorge de Leon,TRUE,Completa Salud S.A.,Ciudad,,,,,C0186,
Jorge de Leon,TRUE,Cruz Roja Guatemalteca,Ciudad,,,,,C0187,
Jorge de Leon,TRUE,David Mejia,Ciudad,,,,,C0188,
Jorge de Leon,TRUE,Deysi Perez,Ciudad,,,,,C0189,
Jorge de Leon,TRUE,Diagnasa,Ciudad,,,,,C0190,
Jorge de Leon,TRUE,Dirección de Area de Salud de Alta Verapaz,Ciudad,,,,,C0191,
Jorge de Leon,TRUE,Edgar Rosmundo,Ciudad,,,,,C0192,
Jorge de Leon,TRUE,Edwin Duarte,Ciudad,,,,,C0193,
Jorge de Leon,TRUE,Edwin Mejia,Ciudad,,,,,C0194,
Jorge de Leon,TRUE,Elia de Castillo,Ciudad,,,,,C0195,
Jorge de Leon,TRUE,Empresa Portuaria Nacional Santo Tomas de Castilla,Ciudad,,,,,C0196,
Jorge de Leon,TRUE,Erwin Cu,Ciudad,,,,,C0197,
Jorge de Leon,TRUE,Fabiola Meza,Ciudad,,,,,C0198,
Jorge de Leon,TRUE,Francisca Urrutia Aldana,Ciudad,,,,,C0199,
Jorge de Leon,TRUE,Francisco Balsells,Ciudad,,,,,C0200,
Jorge de Leon,TRUE,Frecia Cortez,Ciudad,,,,,C0201,
Jorge de Leon,TRUE,Fundacion Damian ASFL,Ciudad,,,,,C0202,
Jorge de Leon,TRUE,Global Punto Med S.A,Ciudad,,,,,C0203,
Jorge de Leon,TRUE,Grupo de Especialista en Atencion Integral de Salud,Ciudad,,,,,C0204,
Jorge de Leon,TRUE,Grupo Minerva S.A,Ciudad,,,,,C0205,
Jorge de Leon,TRUE,Grupo Nakano S.A.,Ciudad,,,,,C0206,
Jorge de Leon,TRUE,Henry Noe Martinez,Ciudad,,,,,C0207,
Jorge de Leon,TRUE,Hospital Centro Medico Bethesda,Ciudad,,,,,C0208,
Jorge de Leon,TRUE,"Hospital Corpomedic, S.A.",Ciudad,,,,,C0209,
Jorge de Leon,TRUE,"Hospital Jordan, S.A.",Ciudad,,,,,C0210,
Jorge de Leon,TRUE,Hospital Nacional de Salama,Ciudad,,,,,C0211,
Jorge de Leon,TRUE,Hospital Yarden S.A.,Ciudad,,,,,C0212,
Jorge de Leon,TRUE,IGSS/SubGerencia de Prestaciones en Salud,Ciudad,,,,,C0213,
Jorge de Leon,TRUE,Ilcia Analy Franco Cordero,Ciudad,,,,,C0214,
Jorge de Leon,TRUE,Innovaciones Medicas Internacionales S.A.,Ciudad,,,,,C0215,
Jorge de Leon,TRUE,Interlab,Ciudad,,,,,C0216,
Jorge de Leon,TRUE,Jennifer Andrino,Ciudad,,,,,C0217,
Jorge de Leon,TRUE,Joaquin Noe Coc Hernandez,Ciudad,,,,,C0218,
Jorge de Leon,TRUE,Joely Margot Bravila Hernández,Ciudad,,,,,C0219,
Jorge de Leon,TRUE,Jorge David Burgos Cano,Ciudad,,,,,C0220,
Jorge de Leon,TRUE,Jorge de Leon,Ciudad,,,,,C0221,
Jorge de Leon,TRUE,Jorge Paiz,Ciudad,,,,,C0222,
Jorge de Leon,TRUE,"Jorge paiz, Cynthia Díaz, Copropiedad",Ciudad,,,,,C0223,
Jorge de Leon,TRUE,Jorge Ruano Cano,Ciudad,,,,,C0224,
Jorge de Leon,TRUE,Josefina Natali Gutierrez,Ciudad,,,,,C0225,
Jorge de Leon,TRUE,Jose Leonardo Fabian,Ciudad,,,,,C0226,
Jorge de Leon,TRUE,José Luis Guzmán,Ciudad,,,,,C0227,
Jorge de Leon,TRUE,Jose Maria Hernandez,Ciudad,,,,,C0228,
Jorge de Leon,TRUE,Juan Carlos Tobar,Ciudad,,,,,C0229,
Jorge de Leon,TRUE,Juan Pablo Vargas,Ciudad,,,,,C0230,
Jorge de Leon,TRUE,Juan Ramon Lorenti,Ciudad,,,,,C0231,
Jorge de Leon,TRUE,Julia Meza Duarte,Ciudad,,,,,C0232,
Jorge de Leon,TRUE,Julio Nisthal,Ciudad,,,,,C0233,
Jorge de Leon,TRUE,Karina Baldizon,Ciudad,,,,,C0234,
Jorge de Leon,TRUE,Kristian Flores,Ciudad,,,,,C0235,
Jorge de Leon,TRUE,Laboratorio Asiel,Ciudad,,,,,C0236,
Jorge de Leon,TRUE,Laboratorio Clinico Alameda,Ciudad,,,,,C0237,
Jorge de Leon,TRUE,Laboratorio Clinico Asistencial,Ciudad,,,,,C0238,
Jorge de Leon,TRUE,Laboratorio Clinico Biomedic,Ciudad,,,,,C0239,
Jorge de Leon,TRUE,Laboratorio Clinico Bionalisis,Ciudad,,,,,C0240,
Jorge de Leon,TRUE,laboratorio clinico Elite/Ana Espaderos,Ciudad,,,,,C0241,
Jorge de Leon,TRUE,Laboratorio Clinico Lee,Ciudad,,,,,C0242,
Jorge de Leon,TRUE,Laboratorio Clinico Molab,Ciudad,,,,,C0243,
Jorge de Leon,TRUE,Laboratorio Clinico Quimico Biologico de Servicio,Ciudad,,,,,C0244,
Jorge de Leon,TRUE,Laboratorio Clinico Renacer Copropiedad,Ciudad,,,,,C0245,
Jorge de Leon,TRUE,Laboratorio Clinico Salud Integral Viva Feliz,Ciudad,,,,,C0246,
Jorge de Leon,TRUE,Laboratorio clinico san ignacio de loyola,Ciudad,,,,,C0247,
Jorge de Leon,TRUE,Laboratorio Clínico Sven,Ciudad,,,,,C0248,
Jorge de Leon,TRUE,Laboratorio clinico tikalab,Ciudad,,,,,C0249,
Jorge de Leon,TRUE,"Laboratorio de Análisis Clínico, Anaclin",Ciudad,,,,,C0250,
Jorge de Leon,TRUE,Laboratorio de Servicios Clínicos e Industriales,Ciudad,,,,,C0251,
Jorge de Leon,TRUE,Laboratorio El Rosario,Ciudad,,,,,C0252,
Jorge de Leon,TRUE,Laboratorio Garlem,Ciudad,,,,,C0253,
Jorge de Leon,TRUE,Laboratorio Marcia Samayoa,Ciudad,,,,,C0254,
Jorge de Leon,TRUE,Laboratorio Medico Salama / Estela Veliz,Ciudad,,,,,C0255,
Jorge de Leon,TRUE,Laboratorio RM,Ciudad,,,,,C0256,
Jorge de Leon,TRUE,Laboratorio Salud Integral,Ciudad,,,,,C0257,
Jorge de Leon,TRUE,Laboratorio Santo Domingo,Ciudad,,,,,C0258,
Jorge de Leon,TRUE,Laboratorios Izabal,Ciudad,,,,,C0259,
Jorge de Leon,TRUE,Laboratorio Tecnología Diagnostica,Ciudad,,,,,C0260,
Jorge de Leon,TRUE,Labsci,Ciudad,,,,,C0261,
Jorge de Leon,TRUE,Lavimed,Ciudad,,,,,C0262,
Jorge de Leon,TRUE,Ligia Juarez,Ciudad,,,,,C0263,
Jorge de Leon,TRUE,Maria Antonia Lopez,Ciudad,,,,,C0264,
Jorge de Leon,TRUE,Maria del Carmen Perez,Ciudad,,,,,C0265,
Jorge de Leon,TRUE,Maria de los Angeles Prado de Oliva,Ciudad,,,,,C0266,
Jorge de Leon,TRUE,Maria Fernanda Barillas Mendoza,Ciudad,,,,,C0267,
Jorge de Leon,TRUE,Marisol Quiroz,Ciudad,,,,,C0268,
Jorge de Leon,TRUE,Maritza Revolorio,Ciudad,,,,,C0269,
Jorge de Leon,TRUE,Medardo Lopez Mayedo,Ciudad,,,,,C0270,
Jorge de Leon,TRUE,Medicina Corporativa del Atlántico S.A.,Ciudad,,,,,C0271,
Jorge de Leon,TRUE,Melvin Vicente,Ciudad,,,,,C0272,
Jorge de Leon,TRUE,Milton Chacón Del Cid,Ciudad,,,,,C0273,
Jorge de Leon,TRUE,Miriam Dolores Hernandez,Ciudad,,,,,C0274,
Jorge de Leon,TRUE,Misael Toboso,Ciudad,,,,,C0275,
Jorge de Leon,TRUE,Moises Vargas Felipe,Ciudad,,,,,C0276,
Jorge de Leon,TRUE,Nancy Edinora Soberanis Gabriel,Ciudad,,,,,C0277,
Jorge de Leon,TRUE,Nelson Dominguez,Ciudad,,,,,C0278,
Jorge de Leon,TRUE,Nely Janira Ortiz Ramirez,Ciudad,,,,,C0279,
Jorge de Leon,TRUE,Nidia Alonzo,Ciudad,,,,,C0280,
Jorge de Leon,TRUE,Nitida Aldecoa Baldizon,Ciudad,,,,,C0281,
Jorge de Leon,TRUE,Nora Avalos,Ciudad,,,,,C0282,
Jorge de Leon,TRUE,Organizacion Cristiana de Beneficio Social Esperanza de Vida,Ciudad,,,,,C0283,
Jorge de Leon,TRUE,Oscar Rafael de Jesús Quezada Reyes,Ciudad,,,,,C0284,
Jorge de Leon,TRUE,Osmany Carranza,Ciudad,,,,,C0285,
Jorge de Leon,TRUE,Pablo Cesar Gomez,Ciudad,,,,,C0286,
Jorge de Leon,TRUE,Patricia García Salas,Ciudad,,,,,C0287,
Jorge de Leon,TRUE,"Prevenga, S.A.",Ciudad,,,,,C0288,
Jorge de Leon,TRUE,PRODILAB,Ciudad,,,,,C0289,
Jorge de Leon,TRUE,Proyecto de Salud Marie Egan/Vicariato,Ciudad,,,,,C0290,
Jorge de Leon,TRUE,Proyecto de Salud Sangre de Cristo,Ciudad,,,,,C0291,
Jorge de Leon,TRUE,Renato Lopez,Ciudad,,,,,C0292,
Jorge de Leon,TRUE,Rivpa S.A,Ciudad,,,,,C0293,
Jorge de Leon,TRUE,Roxana Ramos de Palencia,Ciudad,,,,,C0294,
Jorge de Leon,TRUE,Sanatorio San Sebastian,Ciudad,,,,,C0295,
Jorge de Leon,TRUE,Sanatorio Villa Hermosa S.A.,Ciudad,,,,,C0296,
Jorge de Leon,TRUE,Sara Mena Rosales,Ciudad,,,,,C0297,
Jorge de Leon,TRUE,Servicios Medicos y Farmacia Shalom,Ciudad,,,,,C0298,
Jorge de Leon,TRUE,Servilab,Ciudad,,,,,C0299,
Jorge de Leon,TRUE,Shanti,Ciudad,,,,,C0300,
Jorge de Leon,TRUE,Silvia Rodriguez,Ciudad,,,,,C0301,
Jorge de Leon,TRUE,Solivan Oliva,Ciudad,,,,,C0302,
Jorge de Leon,TRUE,Stacy Roulet,Ciudad,,,,,C0303,
Jorge de Leon,TRUE,Universidad Mariano Galvez,Ciudad,,,,,C0304,
Jorge de Leon,TRUE,"Utilidades Medicas, S. A.",Ciudad,,,,,C0305,
Jorge de Leon,TRUE,Victor Jose Miss Retana,Ciudad,,,,,C0306,
Jorge de Leon,TRUE,Victor Lau Chang,Ciudad,,,,,C0307,
Jorge de Leon,TRUE,Victor Manuel Salguero Quinto,Ciudad,,,,,C0308,
Jorge de Leon,TRUE,Victor Santiago Medina Moriano,Ciudad,,,,,C0309,
Jorge de Leon,TRUE,Wendi Carina Lima de Morales,Ciudad,,,,,C0310,
Jorge de Leon,TRUE,Wilson Arevalo,Ciudad,,,,,C0311,
Jorge de Leon,TRUE,Wilson Arevalo/LABCENTER,Ciudad,,,,,C0312,
Jorge de Leon,TRUE,Yeimy Perez,Ciudad,,,,,C0313,
Jorge de Leon,TRUE,Yessica Rivera,Ciudad,,,,,C0314,
Marvin Monterroso,TRUE,Abefam ONG,Ciudad,,,,,C0315,
Marvin Monterroso,TRUE,Adrian Galindo,Ciudad,,,,,C0316,
Marvin Monterroso,TRUE,Alfonso Alvarez,Ciudad,,,,,C0317,
Marvin Monterroso,TRUE,Ana Guisela Sologaistoa,Ciudad,,,,,C0318,
Marvin Monterroso,TRUE,Ana Ingrid Lange,Ciudad,,,,,C0319,
Marvin Monterroso,TRUE,Ana Isabel Sandoval,Ciudad,,,,,C0320,
Marvin Monterroso,TRUE,Ana Lucia Martinez Mora,Ciudad,,,,,C0321,
Marvin Monterroso,TRUE,Angel Elias,Ciudad,,,,,C0322,
Marvin Monterroso,TRUE,Angel Santizo,Ciudad,,,,,C0323,
Marvin Monterroso,TRUE,Asistencia y Equipos S.A.,Ciudad,,,,,C0324,
Marvin Monterroso,TRUE,Asociación Hospital de la Familia,Ciudad,,,,,C0325,
Marvin Monterroso,TRUE,Asociación Israel,Ciudad,,,,,C0326,
Marvin Monterroso,TRUE,Beatriz Adriana Lopez,Ciudad,,,,,C0327,
Marvin Monterroso,TRUE,Belter Everardo López Siliezar,Ciudad,,,,,C0328,
Marvin Monterroso,TRUE,Benjamin Colop Vicente,Ciudad,,,,,C0329,
Marvin Monterroso,TRUE,"Biotest, S. A.",Ciudad,,,,,C0330,
Marvin Monterroso,TRUE,Briceyda Perez,Ciudad,,,,,C0331,
Marvin Monterroso,TRUE,Bryan Miranda,Ciudad,,,,,C0332,
Marvin Monterroso,TRUE,Carlos Hurtado,Ciudad,,,,,C0333,
Marvin Monterroso,TRUE,Carmen Eugenia Rodriguez,Ciudad,,,,,C0334,
Marvin Monterroso,TRUE,Carmen Guzman,Ciudad,,,,,C0335,
Marvin Monterroso,TRUE,Carolina de Donis,Ciudad,,,,,C0336,
Marvin Monterroso,TRUE,Centro de Analisis Biologico,Ciudad,,,,,C0337,
Marvin Monterroso,TRUE,"Centro de Diagnostico Cedip, S.A.",Ciudad,,,,,C0338,
Marvin Monterroso,TRUE,Centro de Diagnóstico La Esperanza,Ciudad,,,,,C0339,
Marvin Monterroso,TRUE,Centro de Diagnostico San Jose,Ciudad,,,,,C0340,
Marvin Monterroso,TRUE,"Centro Diagnostico del Sur, S.A. / BioRad",Ciudad,,,,,C0341,
Marvin Monterroso,TRUE,"Centro Medico Juarez Moreno, S.A",Ciudad,,,,,C0342,
Marvin Monterroso,TRUE,Cesar Bolaños,Ciudad,,,,,C0343,
Marvin Monterroso,TRUE,Christyan Zabaleta,Ciudad,,,,,C0344,
Marvin Monterroso,TRUE,Clinica San Juan,Ciudad,,,,,C0345,
Marvin Monterroso,TRUE,Corporacion del Liceo Educativo Tecnico Evangelico,Ciudad,,,,,C0346,
Marvin Monterroso,TRUE,"Corporación del Liceo Educativo Técnico Evangélico, S.A.",Ciudad,,,,,C0347,
Marvin Monterroso,TRUE,Cruz Roja Guatemalteca,Ciudad,,,,,C0348,
Marvin Monterroso,TRUE,CRUZ ROJA GUATEMALTECA,Ciudad,,,,,C0349,
Marvin Monterroso,TRUE,"Diagnolaboratorios y Diagnostico Stat Cotzumalguapa, S.A.",Ciudad,,,,,C0350,
Marvin Monterroso,TRUE,Diagnostico Medico en Laboratorio Endoscopia y UltrasonidoSA,Ciudad,,,,,C0351,
Marvin Monterroso,TRUE,Diagnostico Profesional,Ciudad,,,,,C0352,
Marvin Monterroso,TRUE,Diana Carolina Galdamez de Leon,Ciudad,,,,,C0353,
Marvin Monterroso,TRUE,Dionicia de Bolaños,Ciudad,,,,,C0354,
Marvin Monterroso,TRUE,Dora Oliva,Ciudad,,,,,C0355,
Marvin Monterroso,TRUE,Dr. Daniel Jiatz Velasquez,Ciudad,,,,,C0356,
Marvin Monterroso,TRUE,Edgar Santizo,Ciudad,,,,,C0357,
Marvin Monterroso,TRUE,Eduardo Celada G,Ciudad,,,,,C0358,
Marvin Monterroso,TRUE,Eliot Pineda,Ciudad,,,,,C0359,
Marvin Monterroso,TRUE,Elizabeth Dominguez,Ciudad,,,,,C0360,
Marvin Monterroso,TRUE,Elsa Gomez Castro,Ciudad,,,,,C0361,
Marvin Monterroso,TRUE,Elva Leticia Pérez López,Ciudad,,,,,C0362,
Marvin Monterroso,TRUE,Elvid Elviaiciv López de León,Ciudad,,,,,C0363,
Marvin Monterroso,TRUE,Ender Bamaca,Ciudad,,,,,C0364,
Marvin Monterroso,TRUE,Ever Ixcot,Ciudad,,,,,C0365,
Marvin Monterroso,TRUE,Fabiola Quiñonez,Ciudad,,,,,C0366,
Marvin Monterroso,TRUE,Farmacia consulta y laboratorio parroquial San Cristóbal,Ciudad,,,,,C0367,
Marvin Monterroso,TRUE,Farmacia Higia,Ciudad,,,,,C0368,
Marvin Monterroso,TRUE,Farmacia y Laboratorio Dagris,Ciudad,,,,,C0369,
Marvin Monterroso,TRUE,Gabriela Hernandez,Ciudad,,,,,C0370,
Marvin Monterroso,TRUE,Gerardo Leonel Escobar Marcos,Ciudad,,,,,C0371,
Marvin Monterroso,TRUE,Gloria Patricia Vasquez Tale,Ciudad,,,,,C0372,
Marvin Monterroso,TRUE,Herber Garcia,Ciudad,,,,,C0373,
Marvin Monterroso,TRUE,"Herdanza, S. A.",Ciudad,,,,,C0374,
Marvin Monterroso,TRUE,Heydi Averalis Del Cid Carranza,Ciudad,,,,,C0375,
Marvin Monterroso,TRUE,"Holdings Bonhomia, S.A.",Ciudad,,,,,C0376,
Marvin Monterroso,TRUE,"Hospital Corpomedic, S.A.",Ciudad,,,,,C0377,
Marvin Monterroso,TRUE,HOSPITAL DE RETALHULEU,Ciudad,,,,,C0378,
Marvin Monterroso,TRUE,Hospital Jesus de Los Milagros,Ciudad,,,,,C0379,
Marvin Monterroso,TRUE,Iglesia Catolica Diocesis de Escuintla,Ciudad,,,,,C0380,
Marvin Monterroso,TRUE,"IGSS Hospital, Chicacao Suchitepequez",Ciudad,,,,,C0381,
Marvin Monterroso,TRUE,IGSS Hospital Patulul Suchitepequez,Ciudad,,,,,C0382,
Marvin Monterroso,TRUE,IGSS Hospital Tiquisate Escuintla,Ciudad,,,,,C0383,
Marvin Monterroso,TRUE,Irma Aguilar,Ciudad,,,,,C0384,
Marvin Monterroso,TRUE,Ivan Roche,Ciudad,,,,,C0385,
Marvin Monterroso,TRUE,Jeannette de Castro,Ciudad,,,,,C0386,
Marvin Monterroso,TRUE,Jenssen Aguilar,Ciudad,,,,,C0387,
Marvin Monterroso,TRUE,Jorge Gonzalez,Ciudad,,,,,C0388,
Marvin Monterroso,TRUE,Jorge Luis Calderon Ortega,Ciudad,,,,,C0389,
Marvin Monterroso,TRUE,Jorge Mario Barrios,Ciudad,,,,,C0390,
Marvin Monterroso,TRUE,Jorge Ramos,Ciudad,,,,,C0391,
Marvin Monterroso,TRUE,Jorge Rodolfo Garcia Escobar,Ciudad,,,,,C0392,
Marvin Monterroso,TRUE,José Daniel Bolaños Barranco,Ciudad,,,,,C0393,
Marvin Monterroso,TRUE,Jose Elian Lopez Avila,Ciudad,,,,,C0394,
Marvin Monterroso,TRUE,Jose Miguel Valle,Ciudad,,,,,C0395,
Marvin Monterroso,TRUE,Jose Rancho Benito,Ciudad,,,,,C0396,
Marvin Monterroso,TRUE,Juan Frascisco Reyes Gonzalez,Ciudad,,,,,C0397,
Marvin Monterroso,TRUE,Julio Armando Paz Espinoza,Ciudad,,,,,C0398,
Marvin Monterroso,TRUE,Karla Orozco,Ciudad,,,,,C0399,
Marvin Monterroso,TRUE,Karla Yesenia Martinez Garcia,Ciudad,,,,,C0400,
Marvin Monterroso,TRUE,Kimberly Denisse Ramos Galván,Ciudad,,,,,C0401,
Marvin Monterroso,TRUE,Labaratorio Clinico Chuy,Ciudad,,,,,C0402,
Marvin Monterroso,TRUE,Labclinsa S.A.,Ciudad,,,,,C0403,
Marvin Monterroso,TRUE,Laboratorio Champel 2,Ciudad,,,,,C0404,
Marvin Monterroso,TRUE,Laboratorio Clinico ADN 2,Ciudad,,,,,C0405,
Marvin Monterroso,TRUE,Laboratorio Clinico Atitlan,Ciudad,,,,,C0406,
Marvin Monterroso,TRUE,Laboratorio clínico biológico Aegli,Ciudad,,,,,C0407,
Marvin Monterroso,TRUE,Laboratorio Clinico Biologico Klini-Labs,Ciudad,,,,,C0408,
Marvin Monterroso,TRUE,Laboratorio Clinico CEDEMA,Ciudad,,,,,C0409,
Marvin Monterroso,TRUE,Laboratorio Clinico Eben-Ezer,Ciudad,,,,,C0410,
Marvin Monterroso,TRUE,Laboratorio Clinico El Portal,Ciudad,,,,,C0411,
Marvin Monterroso,TRUE,Laboratorio Clínico Lo Natural,Ciudad,,,,,C0412,
Marvin Monterroso,TRUE,Laboratorio Clinico Lopez y Meneses,Ciudad,,,,,C0413,
Marvin Monterroso,TRUE,Laboratorio Clinico Nescar,Ciudad,,,,,C0414,
Marvin Monterroso,TRUE,"Laboratorio Clinico Ovalle, S. A.",Ciudad,,,,,C0415,
Marvin Monterroso,TRUE,Laboratorio Control Biologico,Ciudad,,,,,C0416,
Marvin Monterroso,TRUE,Laboratorio Inmunodiagnostico del Sur,Ciudad,,,,,C0417,
Marvin Monterroso,TRUE,Laboratorio Lange,Ciudad,,,,,C0418,
Marvin Monterroso,TRUE,Laboratorio Los Andes,Ciudad,,,,,C0419,
Marvin Monterroso,TRUE,Laboratorio Nuestra Señora de la Paz,Ciudad,,,,,C0420,
Marvin Monterroso,TRUE,Laboratorio San Antonio,Ciudad,,,,,C0421,
Marvin Monterroso,TRUE,Laboratorios Biologicos del Pacifico S. A.,Ciudad,,,,,C0422,
Marvin Monterroso,TRUE,Laboratorios Clinicos Provida de Guatemala S.A.,Ciudad,,,,,C0423,
Marvin Monterroso,TRUE,LESLY AGUILAR,Ciudad,,,,,C0424,
Marvin Monterroso,TRUE,Liga Guatemalteca Contra las Enfermedades del Corazón,Ciudad,,,,,C0425,
Marvin Monterroso,TRUE,Ligia Duarte Ávila,Ciudad,,,,,C0426,
Marvin Monterroso,TRUE,Lucas David Garcia,Ciudad,,,,,C0427,
Marvin Monterroso,TRUE,Lucy Gómez Orellana,Ciudad,,,,,C0428,
Marvin Monterroso,TRUE,Magaly Cuellar,Ciudad,,,,,C0429,
Marvin Monterroso,TRUE,Magda Morales,Ciudad,,,,,C0430,
Marvin Monterroso,TRUE,Marlis Valenzuela,Ciudad,,,,,C0431,
Marvin Monterroso,TRUE,Más Salud S.A.,Ciudad,,,,,C0432,
Marvin Monterroso,TRUE,Megapolis S.A.,Ciudad,,,,,C0433,
Marvin Monterroso,TRUE,"Molinos Central- Helvetia, Sociedad anonima",Ciudad,,,,,C0434,
Marvin Monterroso,TRUE,Monica Nova,Ciudad,,,,,C0435,
Marvin Monterroso,TRUE,Nancy Denisse Recinos Morales,Ciudad,,,,,C0436,
Marvin Monterroso,TRUE,Nelson Chim,Ciudad,,,,,C0437,
Marvin Monterroso,TRUE,Neyli Melina Solares Gonzalez/y o SERCOM,Ciudad,,,,,C0438,
Marvin Monterroso,TRUE,Novalab,Ciudad,,,,,C0439,
Marvin Monterroso,TRUE,OIRSA,Ciudad,,,,,C0440,
Marvin Monterroso,TRUE,ORTOSA,Ciudad,,,,,C0441,
Marvin Monterroso,TRUE,Oscar Avendaño,Ciudad,,,,,C0442,
Marvin Monterroso,TRUE,Oscar Humberto Chochom Pacaya,Ciudad,,,,,C0443,
Marvin Monterroso,TRUE,Ovel Rocael Ramirez,Ciudad,,,,,C0444,
Marvin Monterroso,TRUE,Patricio Bartolomé Luis Vicente,Ciudad,,,,,C0445,
Marvin Monterroso,TRUE,Patronato de Acción Contra la Lepra,Ciudad,,,,,C0446,
Marvin Monterroso,TRUE,Patronato Virgen de Loreto,Ciudad,,,,,C0447,
Marvin Monterroso,TRUE,Plaza Diagnostica S. A.,Ciudad,,,,,C0448,
Marvin Monterroso,TRUE,Policlinica Mayo,Ciudad,,,,,C0449,
Marvin Monterroso,TRUE,"Proveedora Roedsa, S. A.",Ciudad,,,,,C0450,
Marvin Monterroso,TRUE,Rivers Marketing,Ciudad,,,,,C0451,
Marvin Monterroso,TRUE,Rolando Lopez de Leon,Ciudad,,,,,C0452,
Marvin Monterroso,TRUE,Rony Donis/ Laboratorio Panorma,Ciudad,,,,,C0453,
Marvin Monterroso,TRUE,Rosario Velasquez Poz,Ciudad,,,,,C0454,
Marvin Monterroso,TRUE,Silvia de Belteton,Ciudad,,,,,C0455,
Marvin Monterroso,TRUE,Silvia Eugenia Flores,Ciudad,,,,,C0456,
Marvin Monterroso,TRUE,Sistemas y Equipos S. A.,Ciudad,,,,,C0457,
Marvin Monterroso,TRUE,Susana Elvira Alvarado,Ciudad,,,,,C0458,
Marvin Monterroso,TRUE,Tania Salazar,Ciudad,,,,,C0459,
Marvin Monterroso,TRUE,Tecnolab,Ciudad,,,,,C0460,
Marvin Monterroso,TRUE,Tomoscan S.A,Ciudad,,,,,C0461,
Marvin Monterroso,TRUE,UNAERC,Ciudad,,,,,C0462,
Marvin Monterroso,TRUE,"Unidad Medica del Sur, S. A.",Ciudad,,,,,C0463,
Marvin Monterroso,TRUE,Venta de Medicina El Suerito,Ciudad,,,,,C0464,
Marvin Monterroso,TRUE,Veronica Del Rosario Itzep Solares,Ciudad,,,,,C0465,
Marvin Monterroso,TRUE,Víctor Leonardo Rivera Cota,Ciudad,,,,,C0466,
Marvin Monterroso,TRUE,Viriato Mere Medcor,Ciudad,,,,,C0467,
Marvin Monterroso,TRUE,Walter Gerardo Barrios Ramirez,Ciudad,,,,,C0468,
Marvin Monterroso,TRUE,Yasel Vargas,Ciudad,,,,,C0469,
Marvin Monterroso,TRUE,Yohana Beatriz Garcia Gutierrez,Ciudad,,,,,C0470,
Marvin Monterroso,TRUE,Zona Medica,Ciudad,,,,,C0471,
Paola Nufio,TRUE,Adela Ruiz Rodenas,Ciudad,,,,,C0472,
Paola Nufio,TRUE,Allan Vasquez,Ciudad,,,,,C0473,
Paola Nufio,TRUE,Alma Castillo,Ciudad,,,,,C0474,
Paola Nufio,TRUE,Alvaro Patzan,Ciudad,,,,,C0475,
Paola Nufio,TRUE,Ana Cristina Samayoa Moreno,Ciudad,,,,,C0476,
Paola Nufio,TRUE,Analucia Gonzalez,Ciudad,,,,,C0477,
Paola Nufio,TRUE,Andres Lorenzana,Ciudad,,,,,C0478,
Paola Nufio,TRUE,Animal Life,Ciudad,,,,,C0479,
Paola Nufio,TRUE,Asociacion de Medicos Especialistas de Guatemala,Ciudad,,,,,C0480,
Paola Nufio,TRUE,Asociación Paz y Bien de España,Ciudad,,,,,C0481,
Paola Nufio,TRUE,Asociacion Vida,Ciudad,,,,,C0482,
Paola Nufio,TRUE,Asoc. MCMI/ Clinica San Jose,Ciudad,,,,,C0483,
Paola Nufio,TRUE,Aura Alvarado de Palacios,Ciudad,,,,,C0484,
Paola Nufio,TRUE,Aury Jimenez,Ciudad,,,,,C0485,
Paola Nufio,TRUE,Bellart Salon y Spa,Ciudad,,,,,C0486,
Paola Nufio,TRUE,"Binem, S. A.",Ciudad,,,,,C0487,
Paola Nufio,TRUE,BIOEXAMENES,Ciudad,,,,,C0488,
Paola Nufio,TRUE,Biotec,Ciudad,,,,,C0489,
Paola Nufio,TRUE,Byron Esteban Chutan Ortiz,Ciudad,,,,,C0490,
Paola Nufio,TRUE,Carlos Dardon,Ciudad,,,,,C0491,
Paola Nufio,TRUE,Carlos Galvez,Ciudad,,,,,C0492,
Paola Nufio,TRUE,Carmen Coque Morales,Ciudad,,,,,C0493,
Paola Nufio,TRUE,Centro Clinico La Villa,Ciudad,,,,,C0494,
Paola Nufio,TRUE,Centro de Atencion Sanitaria San Rafael,Ciudad,,,,,C0495,
Paola Nufio,TRUE,"Centro Médico Familiar Da Vinci, S. A.",Ciudad,,,,,C0496,
Paola Nufio,TRUE,Centro Medico Santa Ariadna,Ciudad,,,,,C0497,
Paola Nufio,TRUE,Centro Procrea,Ciudad,,,,,C0498,
Paola Nufio,TRUE,Clara Luz Portillo Donado,Ciudad,,,,,C0499,
Paola Nufio,TRUE,Colab,Ciudad,,,,,C0500,
Paola Nufio,TRUE,Congregacion Marta y Maria,Ciudad,,,,,C0501,
Paola Nufio,TRUE,"Consultores Morales - Solis & Asociados, S.A",Ciudad,,,,,C0502,
Paola Nufio,TRUE,Corporacion Josue S. A.,Ciudad,,,,,C0503,
Paola Nufio,TRUE,Corporación Medica Cruz y Herrera S.A.,Ciudad,,,,,C0504,
Paola Nufio,TRUE,Delmy Berganza,Ciudad,,,,,C0505,
Paola Nufio,TRUE,Deme S.A.,Ciudad,,,,,C0506,
Paola Nufio,TRUE,"Dermaestetic, Sociedad Anónima",Ciudad,,,,,C0507,
Paola Nufio,TRUE,Diagnostico Clínico de Oriente S.A.,Ciudad,,,,,C0508,
Paola Nufio,TRUE,Dinora Leytan,Ciudad,,,,,C0509,
Paola Nufio,TRUE,Dominga Ramírez,Ciudad,,,,,C0510,
Paola Nufio,TRUE,Dr. German A. Samayoa Cano,Ciudad,,,,,C0511,
Paola Nufio,TRUE,Ecomedic,Ciudad,,,,,C0512,
Paola Nufio,TRUE,Econolabsa,Ciudad,,,,,C0513,
Paola Nufio,TRUE,Elfida Feridyma Escobar Garrido,Ciudad,,,,,C0514,
Paola Nufio,TRUE,Elmer Ochoa,Ciudad,,,,,C0515,
Paola Nufio,TRUE,Elser Ordoñez,Ciudad,,,,,C0516,
Paola Nufio,TRUE,Ericka Marquez,Ciudad,,,,,C0517,
Paola Nufio,TRUE,Esteban Herrera,Ciudad,,,,,C0518,
Paola Nufio,TRUE,Eunice de Vasquez,Ciudad,,,,,C0519,
Paola Nufio,TRUE,Farmacia Proeza,Ciudad,,,,,C0520,
Paola Nufio,TRUE,Flor de Maria Franco Samayoa,Ciudad,,,,,C0521,
Paola Nufio,TRUE,Francisco Cuque,Ciudad,,,,,C0522,
Paola Nufio,TRUE,Fundacion Carroll Behrhorst,Ciudad,,,,,C0523,
Paola Nufio,TRUE,Fundacion Semillas de Esperanza,Ciudad,,,,,C0524,
Paola Nufio,TRUE,Gladys Amesquita,Ciudad,,,,,C0525,
Paola Nufio,TRUE,Gloria Roselia Raquec,Ciudad,,,,,C0526,
Paola Nufio,TRUE,"Grupo Diagnosalud, Sociedad Anonima",Ciudad,,,,,C0527,
Paola Nufio,TRUE,"Han Sae Global, S.A.",Ciudad,,,,,C0528,
Paola Nufio,TRUE,Hemolab S.A.,Ciudad,,,,,C0529,
Paola Nufio,TRUE,Hermanas Franciscanas,Ciudad,,,,,C0530,
Paola Nufio,TRUE,Hermes Renato Velasquez,Ciudad,,,,,C0531,
Paola Nufio,TRUE,HOSPITAL CENTRO MEDICO ZACAPA SOCIEDAD ANONIMA,Ciudad,,,,,C0532,
Paola Nufio,TRUE,Hospital Corpus Christi,Ciudad,,,,,C0533,
Paola Nufio,TRUE,Hospital Universitario Esperanza S.A.,Ciudad,,,,,C0534,
Paola Nufio,TRUE,IGSS Consultorio Zacapa,Ciudad,,,,,C0535,
Paola Nufio,TRUE,Ilda Salguero,Ciudad,,,,,C0536,
Paola Nufio,TRUE,Iliana Consuelo Contreras / Laboratorio Clinico Evalab,Ciudad,,,,,C0537,
Paola Nufio,TRUE,Ingrid Lopez,Ciudad,,,,,C0538,
Paola Nufio,TRUE,Ingrid Sagastume,Ciudad,,,,,C0539,
Paola Nufio,TRUE,Ingrid Vega,Ciudad,,,,,C0540,
Paola Nufio,TRUE,"INMED, S.A.",Ciudad,,,,,C0541,
Paola Nufio,TRUE,Instituto Tecnico Privado Vocacional,Ciudad,,,,,C0542,
Paola Nufio,TRUE,Integral Quality,Ciudad,,,,,C0543,
Paola Nufio,TRUE,"Inversiones Diagnósticas, Copropiedad",Ciudad,,,,,C0544,
Paola Nufio,TRUE,Jennifer Andrino,Ciudad,,,,,C0545,
Paola Nufio,TRUE,Johana Cristina Rubio,Ciudad,,,,,C0546,
Paola Nufio,TRUE,Jorge Luis Rodriguez,Ciudad,,,,,C0547,
Paola Nufio,TRUE,Jorge Sieza Vides,Ciudad,,,,,C0548,
Paola Nufio,TRUE,Julio Genaro Ruiz,Ciudad,,,,,C0549,
Paola Nufio,TRUE,Labdex,Ciudad,,,,,C0550,
Paola Nufio,TRUE,LABMEDIC,Ciudad,,,,,C0551,
Paola Nufio,TRUE,Laboratorio Central de Oriente,Ciudad,,,,,C0552,
Paola Nufio,TRUE,Laboratorio Clinico Biomedic,Ciudad,,,,,C0553,
Paola Nufio,TRUE,"Laboratorio Clinico Central, S. A.",Ciudad,,,,,C0554,
Paola Nufio,TRUE,Laboratorio Clinico Jireh Copropiedad,Ciudad,,,,,C0555,
Paola Nufio,TRUE,Laboratorio Clínico Medicentro Copropiedad,Ciudad,,,,,C0556,
Paola Nufio,TRUE,LABORATORIO CLINICO PROFESIONAL TECOLOTLAN COPROPIEDAD,Ciudad,,,,,C0557,
Paola Nufio,TRUE,Laboratorio Clinico San Antonio,Ciudad,,,,,C0558,
Paola Nufio,TRUE,Laboratorio Clinico San Bernardino,Ciudad,,,,,C0559,
Paola Nufio,TRUE,Laboratorio Clinico Social Lourdes,Ciudad,,,,,C0560,
Paola Nufio,TRUE,laboratorio Clínico Vides,Ciudad,,,,,C0561,
Paola Nufio,TRUE,Laboratorio de Analisis Bioloclinicos Especializados,Ciudad,,,,,C0562,
Paola Nufio,TRUE,Laboratorio de Analisis Biologico Diagnolab,Ciudad,,,,,C0563,
Paola Nufio,TRUE,Laboratorio Santa Luisa,Ciudad,,,,,C0564,
Paola Nufio,TRUE,Laboratorios Clinicos Provida S. A.,Ciudad,,,,,C0565,
Paola Nufio,TRUE,Labtec / Jose Roberto Ramirez,Ciudad,,,,,C0566,
Paola Nufio,TRUE,Labtec San Jorge,Ciudad,,,,,C0567,
Paola Nufio,TRUE,"La Casa del Diagnostico, S.A.",Ciudad,,,,,C0568,
Paola Nufio,TRUE,Lesbia Cal Velasquez,Ciudad,,,,,C0569,
Paola Nufio,TRUE,Lesbia Korina Guinea Chavarria,Ciudad,,,,,C0570,
Paola Nufio,TRUE,Lesli Carolina Marin,Ciudad,,,,,C0571,
Paola Nufio,TRUE,Leslie Castilla,Ciudad,,,,,C0572,
Paola Nufio,TRUE,Lorena Salguero,Ciudad,,,,,C0573,
Paola Nufio,TRUE,Luis Arturo Sipac Ixen,Ciudad,,,,,C0574,
Paola Nufio,TRUE,Luis Chiquito,Ciudad,,,,,C0575,
Paola Nufio,TRUE,Margarita Perez Martini,Ciudad,,,,,C0576,
Paola Nufio,TRUE,Maria Angelina Adsivinac,Ciudad,,,,,C0577,
Paola Nufio,TRUE,Maria Guinea,Ciudad,,,,,C0578,
Paola Nufio,TRUE,Mauro Morales,Ciudad,,,,,C0579,
Paola Nufio,TRUE,Meganalisis Copropiedad,Ciudad,,,,,C0580,
Paola Nufio,TRUE,Melany Cardona,Ciudad,,,,,C0581,
Paola Nufio,TRUE,Melba Girón,Ciudad,,,,,C0582,
Paola Nufio,TRUE,MILDRED CARDONA,Ciudad,,,,,C0583,
Paola Nufio,TRUE,Milvia Perez,Ciudad,,,,,C0584,
Paola Nufio,TRUE,MULTINEGOCIOS AGUILAR,Ciudad,,,,,C0585,
Paola Nufio,TRUE,"NUR, S.A.",Ciudad,,,,,C0586,
Paola Nufio,TRUE,Obras Sociales Parroquia San Pedro,Ciudad,,,,,C0587,
Paola Nufio,TRUE,Orfa Morales,Ciudad,,,,,C0588,
Paola Nufio,TRUE,Organizacion Medico Diagnostico,Ciudad,,,,,C0589,
Paola Nufio,TRUE,Oscar Gomez,Ciudad,,,,,C0590,
Paola Nufio,TRUE,Oscar Guillermo Diaz Contreras,Ciudad,,,,,C0591,
Paola Nufio,TRUE,Ottoniel Barrios,Ciudad,,,,,C0592,
Paola Nufio,TRUE,Rafaela Ordoñez,Ciudad,,,,,C0593,
Paola Nufio,TRUE,Reinelda Arriaza de Pantaleon,Ciudad,,,,,C0594,
Paola Nufio,TRUE,Reyna Zuseth Noguera,Ciudad,,,,,C0595,
Paola Nufio,TRUE,RH Anderson Laboratorio,Ciudad,,,,,C0596,
Paola Nufio,TRUE,"RIACORP, SOCIEDAD ANONIMA",Ciudad,,,,,C0597,
Paola Nufio,TRUE,Rudy Estuardo Estrada Pérez,Ciudad,,,,,C0598,
Paola Nufio,TRUE,Saidy Garcia,Ciudad,,,,,C0599,
Paola Nufio,TRUE,Sanatorio La Promesa,Ciudad,,,,,C0600,
Paola Nufio,TRUE,Servicios Especializados Medicos Integrales,Ciudad,,,,,C0601,
Paola Nufio,TRUE,Servicios Integrales de Salud,Ciudad,,,,,C0602,
Paola Nufio,TRUE,"Servicios Medicos Globales Jimenez Rodriguez, S.A.",Ciudad,,,,,C0603,
Paola Nufio,TRUE,"Servicios Medicos Itzamna, S.A.",Ciudad,,,,,C0604,
Paola Nufio,TRUE,Servicios Medicos Montecristo,Ciudad,,,,,C0605,
Paola Nufio,TRUE,Tecnicas Biológicas S.A.,Ciudad,,,,,C0606,
Paola Nufio,TRUE,Unidad Medica de Zacapa,Ciudad,,,,,C0607,
Paola Nufio,TRUE,USAC/Cunori,Ciudad,,,,,C0608,
Paola Nufio,TRUE,Vallejo Grupo Medico Dental S.A,Ciudad,,,,,C0609,
Paola Nufio,TRUE,Walter Oliva,Ciudad,,,,,C0610,
Paola Nufio,TRUE,Wilfredo Balcarcel,Ciudad,,,,,C0611,
Paola Nufio,TRUE,WUQU'KAWOQ,Ciudad,,,,,C0612,
Paola Nufio,TRUE,Yenifer Morales,Ciudad,,,,,C0613,
Paola Nufio,TRUE,Zoila Alicia Barrientos,Ciudad,,,,,C0614,
Paola Nufio,TRUE,Zully Morales,Ciudad,,,,,C0615,
Raul Garcia,TRUE,Adriana Liquidano,Ciudad,,,,,C0616,
Raul Garcia,TRUE,Aleida Benitez,Ciudad,,,,,C0617,
Raul Garcia,TRUE,Alex Cruz,Ciudad,,,,,C0618,
Raul Garcia,TRUE,Alvaro Orbelio Lopez,Ciudad,,,,,C0619,
Raul Garcia,TRUE,Analisis Clinico El Centro,Ciudad,,,,,C0620,
Raul Garcia,TRUE,"Análisis Clínicos e Industriales, S. A.",Ciudad,,,,,C0621,
Raul Garcia,TRUE,Analyzer Plus,Ciudad,,,,,C0622,
Raul Garcia,TRUE,Ana Mariela Lopez,Ciudad,,,,,C0623,
Raul Garcia,TRUE,Ana Sofia Duarte Acuña,Ciudad,,,,,C0624,
Raul Garcia,TRUE,ANDREA RENEE BERGANZA MARROQUIN,Ciudad,,,,,C0625,
Raul Garcia,TRUE,Andrés Villagran Mejía,Ciudad,,,,,C0626,
Raul Garcia,TRUE,Angelica Cifuentes,Ciudad,,,,,C0627,
Raul Garcia,TRUE,Ascan,Ciudad,,,,,C0628,
Raul Garcia,TRUE,Asociacion de Damas Voluntarias Hospital Nacional de Huehuet,Ciudad,,,,,C0629,
Raul Garcia,TRUE,Asociacion Pro Salud Integral de Desarrollo,Ciudad,,,,,C0630,
Raul Garcia,TRUE,Asociacion Solidario Tejutla,Ciudad,,,,,C0631,
Raul Garcia,TRUE,ASOC PRO B DE LA FAM DE GUATE,Ciudad,,,,,C0632,
Raul Garcia,TRUE,Asoc. Pro-Const. Y Admin. Del Hosp. Regional San Juan Bautis,Ciudad,,,,,C0633,
Raul Garcia,TRUE,Augusto Escobar,Ciudad,,,,,C0634,
Raul Garcia,TRUE,Basilio Diaz Alvarado,Ciudad,,,,,C0635,
Raul Garcia,TRUE,Beatriz Eunice Bautista,Ciudad,,,,,C0636,
Raul Garcia,TRUE,Berta Alicia Esteban Zapata,Ciudad,,,,,C0637,
Raul Garcia,TRUE,Bioanalisis/Mayra Urizar,Ciudad,,,,,C0638,
Raul Garcia,TRUE,Biolab S.A.,Ciudad,,,,,C0639,
Raul Garcia,TRUE,Brenda Osorio,Ciudad,,,,,C0640,
Raul Garcia,TRUE,Candelaria Morales Arias de Lemus,Ciudad,,,,,C0641,
Raul Garcia,TRUE,"Caremed, S. A.",Ciudad,,,,,C0642,
Raul Garcia,TRUE,Carlos Castillo,Ciudad,,,,,C0643,
Raul Garcia,TRUE,Carlos Sabino Alay Corado,Ciudad,,,,,C0644,
Raul Garcia,TRUE,Carola De La Cruz,Ciudad,,,,,C0645,
Raul Garcia,TRUE,"Cedimedic, S. A.",Ciudad,,,,,C0646,
Raul Garcia,TRUE,"Centro Especializado Dres Hernandez, Sociedad Anónima",Ciudad,,,,,C0647,
Raul Garcia,TRUE,Centro Médico Familiar,Ciudad,,,,,C0648,
Raul Garcia,TRUE,"Centro Médico Integral Nueva Santa Rosa, S. A.",Ciudad,,,,,C0649,
Raul Garcia,TRUE,Centro Médico Jireh,Ciudad,,,,,C0650,
Raul Garcia,TRUE,Centro Medico Jutiapa,Ciudad,,,,,C0651,
Raul Garcia,TRUE,Centro Medico La Esperanza,Ciudad,,,,,C0652,
Raul Garcia,TRUE,"Centro Médico ""La Fé""",Ciudad,,,,,C0653,
Raul Garcia,TRUE,"Centro Medico La Fe, S. A.",Ciudad,,,,,C0654,
Raul Garcia,TRUE,Claudia Hernandez,Ciudad,,,,,C0655,
Raul Garcia,TRUE,Claudia Rojas,Ciudad,,,,,C0656,
Raul Garcia,TRUE,Clínica Dios de Pactos,Ciudad,,,,,C0657,
Raul Garcia,TRUE,Clinica Medica Davila / Francisco Davila,Ciudad,,,,,C0658,
Raul Garcia,TRUE,Clinicas Parroquiales Santa Cruz Naranjo,Ciudad,,,,,C0659,
Raul Garcia,TRUE,Colegio El Mesías,Ciudad,,,,,C0660,
Raul Garcia,TRUE,Colegio Monte Alto,Ciudad,,,,,C0661,
Raul Garcia,TRUE,"Colon y Recto, S. A.",Ciudad,,,,,C0662,
Raul Garcia,TRUE,Corporacion Medica El Cubano S. A.,Ciudad,,,,,C0663,
Raul Garcia,TRUE,"Corporacion Ramirez Lopez, S. A.",Ciudad,,,,,C0664,
Raul Garcia,TRUE,Cruz Roja Guatemalteca,Ciudad,,,,,C0665,
Raul Garcia,TRUE,Dalila Margarita Salanic,Ciudad,,,,,C0666,
Raul Garcia,TRUE,Diagnostic de Oriente,Ciudad,,,,,C0667,
Raul Garcia,TRUE,"Diagnostico por Imagenes San Carlos, Aguacatan S. A.",Ciudad,,,,,C0668,
Raul Garcia,TRUE,"Diagnosticos Clinicos y Biologicos, S. A.",Ciudad,,,,,C0669,
Raul Garcia,TRUE,Diagnosticos Integrales de Salud S.A.,Ciudad,,,,,C0670,
Raul Garcia,TRUE,"Distribuidora Reyma, S.A.",Ciudad,,,,,C0671,
Raul Garcia,TRUE,Dori Margoth Escalante Villacinda,Ciudad,,,,,C0672,
Raul Garcia,TRUE,Edelmira Aguilar,Ciudad,,,,,C0673,
Raul Garcia,TRUE,Edenilson Lopez,Ciudad,,,,,C0674,
Raul Garcia,TRUE,Edgar de la Rosa,Ciudad,,,,,C0675,
Raul Garcia,TRUE,Edwin Manolo Montejo Silvestre,Ciudad,,,,,C0676,
Raul Garcia,TRUE,Eleazar Rivera,Ciudad,,,,,C0677,
Raul Garcia,TRUE,Elfida Feridyma Escobar Garrido,Ciudad,,,,,C0678,
Raul Garcia,TRUE,Elio Chavez,Ciudad,,,,,C0679,
Raul Garcia,TRUE,Eliud Garcia,Ciudad,,,,,C0680,
Raul Garcia,TRUE,Emelyn Lopez Lorenzo,Ciudad,,,,,C0681,
Raul Garcia,TRUE,"Empresa Hospitalaria CEMESA, S. A.",Ciudad,,,,,C0682,
Raul Garcia,TRUE,Enner Suchite,Ciudad,,,,,C0683,
Raul Garcia,TRUE,Ericka Gabriela Arrivillaga Martinez,Ciudad,,,,,C0684,
Raul Garcia,TRUE,Erick Castillo,Ciudad,,,,,C0685,
Raul Garcia,TRUE,Erlinda Mendoza,Ciudad,,,,,C0686,
Raul Garcia,TRUE,Ernesto Mendinueta Figarola,Ciudad,,,,,C0687,
Raul Garcia,TRUE,Esteban Perez,Ciudad,,,,,C0688,
Raul Garcia,TRUE,Ever Escalante,Ciudad,,,,,C0689,
Raul Garcia,TRUE,Fabiola Garcia Axt,Ciudad,,,,,C0690,
Raul Garcia,TRUE,Familab,Ciudad,,,,,C0691,
Raul Garcia,TRUE,Farmacia Ramírez,Ciudad,,,,,C0692,
Raul Garcia,TRUE,Fernando Tojil Sanchez,Ciudad,,,,,C0693,
Raul Garcia,TRUE,Flavio Andres Gonzalez,Ciudad,,,,,C0694,
Raul Garcia,TRUE,Franklin Méndez,Ciudad,,,,,C0695,
Raul Garcia,TRUE,Fredy Renoj,Ciudad,,,,,C0696,
Raul Garcia,TRUE,Fundación Damian,Ciudad,,,,,C0697,
Raul Garcia,TRUE,Fundación Marco Antonio,Ciudad,,,,,C0698,
Raul Garcia,TRUE,Genaro Morales,Ciudad,,,,,C0699,
Raul Garcia,TRUE,"Grupo Amedic, S. A.",Ciudad,,,,,C0700,
Raul Garcia,TRUE,"Grupo Corporativo Jozes, S. A.",Ciudad,,,,,C0701,
Raul Garcia,TRUE,Hector Solis,Ciudad,,,,,C0702,
Raul Garcia,TRUE,Henry Josue Gonzalez Agustin,Ciudad,,,,,C0703,
Raul Garcia,TRUE,Hortencia Menchu,Ciudad,,,,,C0704,
Raul Garcia,TRUE,Hospital de Especialidades Los Angeles,Ciudad,,,,,C0705,
Raul Garcia,TRUE,"Hospital Privado el Jardin, S. A.",Ciudad,,,,,C0706,
Raul Garcia,TRUE,Hospital Regional de Huehuetenango ¨Dr. Jorge Vides Molina¨,Ciudad,,,,,C0707,
Raul Garcia,TRUE,"Hospital Rgnal. de Cuilapa ""Lic. Guillermo Fernandez Llerena",Ciudad,,,,,C0708,
Raul Garcia,TRUE,Hugo Monteagudo,Ciudad,,,,,C0709,
Raul Garcia,TRUE,Hugo Robles,Ciudad,,,,,C0710,
Raul Garcia,TRUE,IGSS Consultorio Jalapa,Ciudad,,,,,C0711,
Raul Garcia,TRUE,Iliana Lopez,Ciudad,,,,,C0712,
Raul Garcia,TRUE,Ilma Recinos,Ciudad,,,,,C0713,
Raul Garcia,TRUE,Incomedic Los Cuchumatanes,Ciudad,,,,,C0714,
Raul Garcia,TRUE,Ingrid Castillo,Ciudad,,,,,C0715,
Raul Garcia,TRUE,Ingrid Lizeth Juarez Palacios,Ciudad,,,,,C0716,
Raul Garcia,TRUE,Ingrid Perez de Orozco,Ciudad,,,,,C0717,
Raul Garcia,TRUE,Ivonne Ruano,Ciudad,,,,,C0718,
Raul Garcia,TRUE,Jaqueline Jimenez,Ciudad,,,,,C0719,
Raul Garcia,TRUE,Jenner Orozco,Ciudad,,,,,C0720,
Raul Garcia,TRUE,Joel Arrivillaga Lopez,Ciudad,,,,,C0721,
Raul Garcia,TRUE,Jorge Garcia,Ciudad,,,,,C0722,
Raul Garcia,TRUE,Jorge Godinez,Ciudad,,,,,C0723,
Raul Garcia,TRUE,Jose Manuel Castañeda,Ciudad,,,,,C0724,
Raul Garcia,TRUE,Josue Anzueto,Ciudad,,,,,C0725,
Raul Garcia,TRUE,Juan Antonio Gonzalez,Ciudad,,,,,C0726,
Raul Garcia,TRUE,Julio Cesar Luna Salazar,Ciudad,,,,,C0727,
Raul Garcia,TRUE,Karina Orozco,Ciudad,,,,,C0728,
Raul Garcia,TRUE,Labcenter,Ciudad,,,,,C0729,
Raul Garcia,TRUE,Lab. Clinico Biologico Genesis,Ciudad,,,,,C0730,
Raul Garcia,TRUE,Lab. Clínico La Esperanza 2/Roxana Arana,Ciudad,,,,,C0731,
Raul Garcia,TRUE,Lab. Clinico La Esperanza/Roxana Arana,Ciudad,,,,,C0732,
Raul Garcia,TRUE,Labin Magaña,Ciudad,,,,,C0733,
Raul Garcia,TRUE,Laboratorio Centro Medico Jalapaneco,Ciudad,,,,,C0734,
Raul Garcia,TRUE,Laboratorio Clinico Bioanalisis,Ciudad,,,,,C0735,
Raul Garcia,TRUE,Laboratorio Clinico Biologico Santa Clara,Ciudad,,,,,C0736,
Raul Garcia,TRUE,Laboratorio Clínico Biomed,Ciudad,,,,,C0737,
Raul Garcia,TRUE,Laboratorio Clinico Camilab,Ciudad,,,,,C0738,
Raul Garcia,TRUE,Laboratorio Clinico Davila / Francisco Davila,Ciudad,,,,,C0739,
Raul Garcia,TRUE,Laboratorio Clinico de Occidente,Ciudad,,,,,C0740,
Raul Garcia,TRUE,Laboratorio Clinico Dr. Leonardo,Ciudad,,,,,C0741,
Raul Garcia,TRUE,Laboratorio Clinico El Jardin,Ciudad,,,,,C0742,
Raul Garcia,TRUE,"Laboratorio Clinico Fuentes y Gomez, S.A.",Ciudad,,,,,C0743,
Raul Garcia,TRUE,Laboratorio Clinico Hospital de Especialidades,Ciudad,,,,,C0744,
Raul Garcia,TRUE,Laboratorio Clínico Jadda,Ciudad,,,,,C0745,
Raul Garcia,TRUE,Laboratorio Clinico La Paz,Ciudad,,,,,C0746,
Raul Garcia,TRUE,Laboratorio clinico profesional,Ciudad,,,,,C0747,
Raul Garcia,TRUE,"Laboratorio Clinico Regional de Referencia, S.A.",Ciudad,,,,,C0748,
Raul Garcia,TRUE,Laboratorio Clínico Sagrado Corazón,Ciudad,,,,,C0749,
Raul Garcia,TRUE,Laboratorio Clinico San Sebastian,Ciudad,,,,,C0750,
Raul Garcia,TRUE,Laboratorio Clínico Santa Cruz,Ciudad,,,,,C0751,
Raul Garcia,TRUE,Laboratorio Clinico Velasquez,Ciudad,,,,,C0752,
Raul Garcia,TRUE,Laboratorio Concepción,Ciudad,,,,,C0753,
Raul Garcia,TRUE,Laboratorio Cuilapa,Ciudad,,,,,C0754,
Raul Garcia,TRUE,Laboratorio DLB,Ciudad,,,,,C0755,
Raul Garcia,TRUE,Laboratorio la Libertad,Ciudad,,,,,C0756,
Raul Garcia,TRUE,Laboratorio Los Angeles,Ciudad,,,,,C0757,
Raul Garcia,TRUE,Laboratorio Microlab,Ciudad,,,,,C0758,
Raul Garcia,TRUE,Laboratorio Profesional Barillas,Ciudad,,,,,C0759,
Raul Garcia,TRUE,Laboratorio Qui Bio Com La Democracia S.A.,Ciudad,,,,,C0760,
Raul Garcia,TRUE,Laboratorio Quimico Biologico,Ciudad,,,,,C0761,
Raul Garcia,TRUE,Laboratorio San Juan,Ciudad,,,,,C0762,
Raul Garcia,TRUE,Laboratorios clínicos Farmacéuticos San Martin,Ciudad,,,,,C0763,
Raul Garcia,TRUE,Laboratorios Clínicos LTS y Copropiedad,Ciudad,,,,,C0764,
Raul Garcia,TRUE,Laboratorio Semefas,Ciudad,,,,,C0765,
Raul Garcia,TRUE,Leandro Francisco Morales Herrera,Ciudad,,,,,C0766,
Raul Garcia,TRUE,Leandro Francisco Morales Herrera / Malacatancito,Ciudad,,,,,C0767,
Raul Garcia,TRUE,Leticia Lima de Marroquin,Ciudad,,,,,C0768,
Raul Garcia,TRUE,Liceo Bilingüe Fray Amadeo,Ciudad,,,,,C0769,
Raul Garcia,TRUE,Ludim Ruiz,Ciudad,,,,,C0770,
Raul Garcia,TRUE,Luis Alfredo Garcia Lopez,Ciudad,,,,,C0771,
Raul Garcia,TRUE,Luis Fernando Anzueto Molina,Ciudad,,,,,C0772,
Raul Garcia,TRUE,Luis Fernando Velasquez,Ciudad,,,,,C0773,
Raul Garcia,TRUE,Luis Rivera,Ciudad,,,,,C0774,
Raul Garcia,TRUE,Luz Elena Chinchilla,Ciudad,,,,,C0775,
Raul Garcia,TRUE,Mainor Arredondo Donis,Ciudad,,,,,C0776,
Raul Garcia,TRUE,Manuel de Jesus Rosa Figueroa,Ciudad,,,,,C0777,
Raul Garcia,TRUE,Manuel Tenas,Ciudad,,,,,C0778,23292898
Raul Garcia,TRUE,Maria Angelica Jimenez,Ciudad,,,,,C0779,
Raul Garcia,TRUE,Maria Eugenia Siekavizza,Ciudad,,,,,C0780,
Raul Garcia,TRUE,Maria Lucrecia Contreras,Ciudad,,,,,C0781,
Raul Garcia,TRUE,Mariana Asucena Godoy Alay,Ciudad,,,,,C0782,
Raul Garcia,TRUE,Marlon Boanerges Lopéz Morales,Ciudad,,,,,C0783,
Raul Garcia,TRUE,Martha Garcia,Ciudad,,,,,C0784,
Raul Garcia,TRUE,Marvin Walberto Sanchez Gomez,Ciudad,,,,,C0785,
Raul Garcia,TRUE,Maury Galvez,Ciudad,,,,,C0786,
Raul Garcia,TRUE,Mazariegos Lab,Ciudad,,,,,C0787,
Raul Garcia,TRUE,Meryl Camas,Ciudad,,,,,C0788,
Raul Garcia,TRUE,Miriam Giron,Ciudad,,,,,C0789,
Raul Garcia,TRUE,Mirna Castillo,Ciudad,,,,,C0790,
Raul Garcia,TRUE,"Multimedicas Jutiapa, S. A.",Ciudad,,,,,C0791,
Raul Garcia,TRUE,"Multiservicios de Salud Quijilem, S. A.",Ciudad,,,,,C0792,
Raul Garcia,TRUE,Nadia Escobar,Ciudad,,,,,C0793,
Raul Garcia,TRUE,Nataly Torres,Ciudad,,,,,C0794,
Raul Garcia,TRUE,Oscar Ortiz,Ciudad,,,,,C0795,
Raul Garcia,TRUE,Paola Maldonado,Ciudad,,,,,C0796,
Raul Garcia,TRUE,"Portal Médico Asunción, Sociedad Anónima",Ciudad,,,,,C0797,
Raul Garcia,TRUE,Promotora de Salud Fuentes y Gómez S.A.,Ciudad,,,,,C0798,
Raul Garcia,TRUE,"Querit, S.A.",Ciudad,,,,,C0799,
Raul Garcia,TRUE,Quibiolab,Ciudad,,,,,C0800,
Raul Garcia,TRUE,Raul Estuardo García Milián,Ciudad,,,,,C0801,
Raul Garcia,TRUE,Reina Aurora Fuentes,Ciudad,,,,,C0802,
Raul Garcia,TRUE,Religiosas Franciscanas de la Inmaculada Clinica San Antonio,Ciudad,,,,,C0803,
Raul Garcia,TRUE,Roberto de Leon Ligorría,Ciudad,,,,,C0804,
Raul Garcia,TRUE,Romulo De Nes,Ciudad,,,,,C0805,
Raul Garcia,TRUE,Ronal Rosil,Ciudad,,,,,C0806,
Raul Garcia,TRUE,Rony Donis/ Laboratorio Panorma,Ciudad,,,,,C0807,
Raul Garcia,TRUE,Rosaida Carolina Recinos Camposeco,Ciudad,,,,,C0808,
Raul Garcia,TRUE,Rosa Quan,Ciudad,,,,,C0809,
Raul Garcia,TRUE,Saharai Morales Ortiz,Ciudad,,,,,C0810,
Raul Garcia,TRUE,Salome Zacarias,Ciudad,,,,,C0811,
Raul Garcia,TRUE,Sanatorio Medicentro Barberena S.A.,Ciudad,,,,,C0812,
Raul Garcia,TRUE,Sanatorio Monte Verde,Ciudad,,,,,C0813,
Raul Garcia,TRUE,Sanatorio Santa Mónica,Ciudad,,,,,C0814,
Raul Garcia,TRUE,Sandra Verónica Mejía,Ciudad,,,,,C0815,
Raul Garcia,TRUE,Servicios Biomedicos,Ciudad,,,,,C0816,
Raul Garcia,TRUE,Servicios Medicos Montecristo,Ciudad,,,,,C0817,
Raul Garcia,TRUE,Servicios Medicos y de Laboratorio S. A.,Ciudad,,,,,C0818,
Raul Garcia,TRUE,Servicio Social Guadalupano,Ciudad,,,,,C0819,
Raul Garcia,TRUE,Servicios Profesionales de Asunción Mita,Ciudad,,,,,C0820,
Raul Garcia,TRUE,Silvia Pineda,Ciudad,,,,,C0821,
Raul Garcia,TRUE,Sinar Tomas Sosa,Ciudad,,,,,C0822,
Raul Garcia,TRUE,Soneida Lopez,Ciudad,,,,,C0823,
Raul Garcia,TRUE,Soneyda Lizeth Lopez Rivas,Ciudad,,,,,C0824,
Raul Garcia,TRUE,Suheiry Rodriguez Duarte,Ciudad,,,,,C0825,
Raul Garcia,TRUE,Technichem S. A.,Ciudad,,,,,C0826,
Raul Garcia,TRUE,Tecnicas Biológicas S.A.,Ciudad,,,,,C0827,
Raul Garcia,TRUE,"Tecnodiagnosis, S.A.",Ciudad,,,,,C0828,
Raul Garcia,TRUE,TECNO LAB,Ciudad,,,,,C0829,
Raul Garcia,TRUE,Unilab,Ciudad,,,,,C0830,
Raul Garcia,TRUE,Universidad Mariano Galvez,Ciudad,,,,,C0831,
Raul Garcia,TRUE,Vera Lucia Velasquez,Ciudad,,,,,C0832,
Raul Garcia,TRUE,Veronica Camey de Cutz,Ciudad,,,,,C0833,
Raul Garcia,TRUE,Verónica de Cojulun,Ciudad,,,,,C0834,
Raul Garcia,TRUE,Victor Talgi,Ciudad,,,,,C0835,
Raul Garcia,TRUE,ViMedica,Ciudad,,,,,C0836,
Raul Garcia,TRUE,Virgilia García Escobar de Galvez,Ciudad,,,,,C0837,
Raul Garcia,TRUE,Vision Para El Desarollo Integral ONG,Ciudad,,,,,C0838,
Raul Garcia,TRUE,Wendy Chamalé,Ciudad,,,,,C0839,
Raul Garcia,TRUE,Wendy Lopez,Ciudad,,,,,C0840,
Raul Garcia,TRUE,Wilmer Geovany López Gómez,Ciudad,,,,,C0841,
Raul Garcia,TRUE,Yamilet Mayra Rodríguez Chún,Ciudad,,,,,C0842,
Raul Garcia,TRUE,Yaneth Asencio,Ciudad,,,,,C0843,
Raul Garcia,TRUE,Yessenia Recinos,Ciudad,,,,,C0844,
Raul Garcia,TRUE,Yilka Quiñonez/Promesa,Ciudad,,,,,C0845,
Raul Garcia,TRUE,Yohanis Zubizarreta,Ciudad,,,,,C0846,
Andrea Ruano,TRUE,"Agropecuaria San Miguel, S.A.",Ciudad,,,,,C0847,
Andrea Ruano,TRUE,Alejandrina Samayoa,Ciudad,,,,,C0848,
Andrea Ruano,TRUE,Andrea Ruano,Ciudad,,,,,C0849,
Andrea Ruano,TRUE,Asociacion de Quimicos Biologos,Ciudad,,,,,C0850,
Andrea Ruano,TRUE,Asociacion Vida,Ciudad,,,,,C0851,
Andrea Ruano,TRUE,Beyond Service,Ciudad,,,,,C0852,
Andrea Ruano,TRUE,"Bio-Nuclear de Guatemala, S. A.",Ciudad,,,,,C0853,
Andrea Ruano,TRUE,Christian Orellana,Ciudad,,,,,C0854,
Andrea Ruano,TRUE,Cooproleche RL,Ciudad,,,,,C0855,
Andrea Ruano,TRUE,Dan Alexander Oliva,Ciudad,,,,,C0856,
Andrea Ruano,TRUE,David Josue Perez,Ciudad,,,,,C0857,
Andrea Ruano,TRUE,Diagnostico en Salud Profesional S.A.,Ciudad,,,,,C0858,
Andrea Ruano,TRUE,DIEGO MORALES,Ciudad,,,,,C0859,
Andrea Ruano,TRUE,Dimsalabs,Ciudad,,,,,C0860,
Andrea Ruano,TRUE,Diprolab,Ciudad,,,,,C0861,
Andrea Ruano,TRUE,Dr. Sandoval Ventura,Ciudad,,,,,C0862,
Andrea Ruano,TRUE,Emilio Aguilar,Ciudad,,,,,C0863,
Andrea Ruano,TRUE,Empresa Agroindustrial Hacienda La Trinidad S.A,Ciudad,,,,,C0864,
Andrea Ruano,TRUE,Erik Pelaez,Ciudad,,,,,C0865,
Andrea Ruano,TRUE,Ervin Alexander Morales Florian,Ciudad,,,,,C0866,
Andrea Ruano,TRUE,Esteban Herrera,Ciudad,,,,,C0867,
Andrea Ruano,TRUE,Estuardo Ruano,Ciudad,,,,,C0868,
Andrea Ruano,TRUE,"Facultativos Personalizados, S.A.",Ciudad,,,,,C0869,
Andrea Ruano,TRUE,Francisco Cuque,Ciudad,,,,,C0870,
Andrea Ruano,TRUE,Fundacion Villa Maria,Ciudad,,,,,C0871,
Andrea Ruano,TRUE,Gladys Amesquita,Ciudad,,,,,C0872,
Andrea Ruano,TRUE,Gondel S.A.,Ciudad,,,,,C0873,
Andrea Ruano,TRUE,"Hacienda Montano S,A.",Ciudad,,,,,C0874,
Andrea Ruano,TRUE,Hector Rodriguez,Ciudad,,,,,C0875,
Andrea Ruano,TRUE,Henry morales,Ciudad,,,,,C0876,
Andrea Ruano,TRUE,IMFOHSA,Ciudad,,,,,C0877,
Andrea Ruano,TRUE,Ingrid Vega,Ciudad,,,,,C0878,
Andrea Ruano,TRUE,Irma Muralles,Ciudad,,,,,C0879,
Andrea Ruano,TRUE,JORGE ALFREDO SOLÍS GONZALEZ/SOLMER,Ciudad,,,,,C0880,
Andrea Ruano,TRUE,Jorge de Leon,Ciudad,,,,,C0881,
Andrea Ruano,TRUE,Jorge Luis de Leon Retana,Ciudad,,,,,C0882,
Andrea Ruano,TRUE,Jorge Mazariegos,Ciudad,,,,,C0883,
Andrea Ruano,TRUE,Julio Hernandez,Ciudad,,,,,C0884,
Andrea Ruano,TRUE,Karla Bacaro,Ciudad,,,,,C0885,
Andrea Ruano,TRUE,Katherine Mejía,Ciudad,,,,,C0886,
Andrea Ruano,TRUE,Kenny Salazar,Ciudad,,,,,C0887,
Andrea Ruano,TRUE,KIMBERLY PINZON,Ciudad,,,,,C0888,
Andrea Ruano,TRUE,Laboratorio Clínico Biomed,Ciudad,,,,,C0889,
Andrea Ruano,TRUE,Laboratorio Santa Maria,Ciudad,,,,,C0890,
Andrea Ruano,TRUE,Laboratorios Clínicos LTS y Copropiedad,Ciudad,,,,,C0891,
Andrea Ruano,TRUE,Lesli Carolina Marin,Ciudad,,,,,C0892,
Andrea Ruano,TRUE,Lisbeth Alvizurez,Ciudad,,,,,C0893,
Andrea Ruano,TRUE,Luis Reyna,Ciudad,,,,,C0894,
Andrea Ruano,TRUE,Luzbeth Valdez,Ciudad,,,,,C0895,
Andrea Ruano,TRUE,M2 Company S. A.,Ciudad,,,,,C0896,
Andrea Ruano,TRUE,Marvin Monterroso,Ciudad,,,,,C0897,
Andrea Ruano,TRUE,MATEO ALVARADO,Ciudad,,,,,C0898,
Andrea Ruano,TRUE,Miriam Juarez,Ciudad,,,,,C0899,
Andrea Ruano,TRUE,Organizacion Medico Diagnostico,Ciudad,,,,,C0900,
Andrea Ruano,TRUE,Paola Nufio,Ciudad,,,,,C0901,
Andrea Ruano,TRUE,"PCL, S. A.",Ciudad,,,,,C0902,
Andrea Ruano,TRUE,Persy Perez,Ciudad,,,,,C0903,
Andrea Ruano,TRUE,Proyecto de Salud Sangre de Cristo,Ciudad,,,,,C0904,
Andrea Ruano,TRUE,"Querit, S.A.",Ciudad,,,,,C0905,
Andrea Ruano,TRUE,"Rades, S. A.",Ciudad,,,,,C0906,
Andrea Ruano,TRUE,Raul Estuardo García Milián,Ciudad,,,,,C0907,
Andrea Ruano,TRUE,Roberto Gandara,Ciudad,,,,,C0908,
Andrea Ruano,TRUE,Rodrigo Arguedas,Ciudad,,,,,C0909,
Andrea Ruano,TRUE,Sergio Torres,Ciudad,,,,,C0910,
Andrea Ruano,TRUE,Servicios Integrales de Salud,Ciudad,,,,,C0911,
Andrea Ruano,TRUE,"Servicios Medicos Transfucionales del Centro, S.A.",Ciudad,,,,,C0912,
Andrea Ruano,TRUE,Shanti,Ciudad,,,,,C0913,
Andrea Ruano,TRUE,Sonia de Perez / LABSAMA,Ciudad,,,,,C0914,
Andrea Ruano,TRUE,"SUPLIDORA HOSPITALARIA, S.A.",Ciudad,,,,,C0915,
Andrea Ruano,TRUE,Susan Puac,Ciudad,,,,,C0916,
Andrea Ruano,TRUE,Universidad Mariano Galvez,Ciudad,,,,,C0917,
Andrea Ruano,TRUE,Wendy Chinchilla,Ciudad,,,,,C0918,
